[{"OBJECT_NAME":"STARLINK-32815","OBJECT_ID":"2025-029J","EPOCH":"2026-03-21T17:34:29.590752","MEAN_MOTION":15.30212312,"ECCENTRICITY":0.00012545,"INCLINATION":53.1591,"RA_OF_ASC_NODE":174.2291,"ARG_OF_PERICENTER":66.4203,"MEAN_ANOMALY":293.693,"EPHEMERIS_TYPE":0,"CLASSIFICATION_TYPE":"U","NORAD_CAT_ID":62956,"ELEMENT_SET_NO":999,"REV_AT_EPOCH":6320,"BSTAR":0.00092519541,"MEAN_MOTION_DOT":0.00027153,"MEAN_MOTION_DDOT":0},{"OBJECT_NAME":"STARLINK-32879","OBJECT_ID":"2025-029K","EPOCH":"2026-03-21T23:04:32.730816","MEAN_MOTION":15.30170993,"ECCENTRICITY":0.00036985,"INCLINATION":53.1559,"RA_OF_ASC_NODE":175.6557,"ARG_OF_PERICENTER":87.4765,"MEAN_ANOMALY":272.6659,"EPHEMERIS_TYPE":0,"CLASSIFICATION_TYPE":"U","NORAD_CAT_ID":62957,"ELEMENT_SET_NO":999,"REV_AT_EPOCH":6319,"BSTAR":-0.00052808071,"MEAN_MOTION_DOT":-0.00015957,"MEAN_MOTION_DDOT":0},{"OBJECT_NAME":"STARLINK-32885","OBJECT_ID":"2025-029L","EPOCH":"2026-03-21T17:36:00.577728","MEAN_MOTION":15.30199127,"ECCENTRICITY":0.0001596,"INCLINATION":53.1582,"RA_OF_ASC_NODE":174.2345,"ARG_OF_PERICENTER":72.5764,"MEAN_ANOMALY":287.5411,"EPHEMERIS_TYPE":0,"CLASSIFICATION_TYPE":"U","NORAD_CAT_ID":62958,"ELEMENT_SET_NO":999,"REV_AT_EPOCH":6319,"BSTAR":0.0011138888,"MEAN_MOTION_DOT":0.00032776,"MEAN_MOTION_DDOT":0},{"OBJECT_NAME":"STARLINK-32896","OBJECT_ID":"2025-029M","EPOCH":"2026-03-21T15:32:29.656608","MEAN_MOTION":15.30234428,"ECCENTRICITY":0.00011052,"INCLINATION":53.1608,"RA_OF_ASC_NODE":177.2512,"ARG_OF_PERICENTER":92.6468,"MEAN_ANOMALY":267.466,"EPHEMERIS_TYPE":0,"CLASSIFICATION_TYPE":"U","NORAD_CAT_ID":62959,"ELEMENT_SET_NO":999,"REV_AT_EPOCH":6314,"BSTAR":0.0015636243,"MEAN_MOTION_DOT":0.00046289,"MEAN_MOTION_DDOT":0},{"OBJECT_NAME":"STARLINK-32877","OBJECT_ID":"2025-029N","EPOCH":"2026-03-21T23:13:39.849312","MEAN_MOTION":15.30198155,"ECCENTRICITY":0.00017576,"INCLINATION":53.1593,"RA_OF_ASC_NODE":175.6945,"ARG_OF_PERICENTER":66.1965,"MEAN_ANOMALY":293.922,"EPHEMERIS_TYPE":0,"CLASSIFICATION_TYPE":"U","NORAD_CAT_ID":62960,"ELEMENT_SET_NO":999,"REV_AT_EPOCH":6317,"BSTAR":0.00063566716,"MEAN_MOTION_DOT":0.00018513,"MEAN_MOTION_DDOT":0},{"OBJECT_NAME":"STARLINK-32889","OBJECT_ID":"2025-029P","EPOCH":"2026-03-21T15:27:55.994976","MEAN_MOTION":15.30220628,"ECCENTRICITY":0.00010988,"INCLINATION":53.1597,"RA_OF_ASC_NODE":177.2331,"ARG_OF_PERICENTER":104.1809,"MEAN_ANOMALY":255.9314,"EPHEMERIS_TYPE":0,"CLASSIFICATION_TYPE":"U","NORAD_CAT_ID":62961,"ELEMENT_SET_NO":999,"REV_AT_EPOCH":6314,"BSTAR":0.00041531155,"MEAN_MOTION_DOT":0.00011969,"MEAN_MOTION_DDOT":0},{"OBJECT_NAME":"STARLINK-32858","OBJECT_ID":"2025-029Q","EPOCH":"2026-03-21T15:36:53.429760","MEAN_MOTION":15.30226589,"ECCENTRICITY":0.00013017,"INCLINATION":53.1613,"RA_OF_ASC_NODE":176.5605,"ARG_OF_PERICENTER":91.5238,"MEAN_ANOMALY":268.5912,"EPHEMERIS_TYPE":0,"CLASSIFICATION_TYPE":"U","NORAD_CAT_ID":62962,"ELEMENT_SET_NO":999,"REV_AT_EPOCH":6313,"BSTAR":0.0010871916,"MEAN_MOTION_DOT":0.00032006,"MEAN_MOTION_DDOT":0},{"OBJECT_NAME":"STARLINK-32882","OBJECT_ID":"2025-029R","EPOCH":"2026-03-21T12:56:53.429856","MEAN_MOTION":15.30215016,"ECCENTRICITY":0.00010783,"INCLINATION":53.1584,"RA_OF_ASC_NODE":175.1566,"ARG_OF_PERICENTER":78.5298,"MEAN_ANOMALY":281.5824,"EPHEMERIS_TYPE":0,"CLASSIFICATION_TYPE":"U","NORAD_CAT_ID":62963,"ELEMENT_SET_NO":999,"REV_AT_EPOCH":6316,"BSTAR":0.00056583558,"MEAN_MOTION_DOT":0.00016444,"MEAN_MOTION_DDOT":0},{"OBJECT_NAME":"STARLINK-32887","OBJECT_ID":"2025-029S","EPOCH":"2026-03-21T15:57:24.109632","MEAN_MOTION":15.30215179,"ECCENTRICITY":0.0001102,"INCLINATION":53.1588,"RA_OF_ASC_NODE":174.5193,"ARG_OF_PERICENTER":99.452,"MEAN_ANOMALY":260.6606,"EPHEMERIS_TYPE":0,"CLASSIFICATION_TYPE":"U","NORAD_CAT_ID":62964,"ELEMENT_SET_NO":999,"REV_AT_EPOCH":6318,"BSTAR":0.0014637946,"MEAN_MOTION_DOT":0.00043267,"MEAN_MOTION_DDOT":0},{"OBJECT_NAME":"STARLINK-32836","OBJECT_ID":"2025-029T","EPOCH":"2026-03-21T15:51:19.439424","MEAN_MOTION":15.3021873,"ECCENTRICITY":0.00012809,"INCLINATION":53.159,"RA_OF_ASC_NODE":174.4909,"ARG_OF_PERICENTER":110.5684,"MEAN_ANOMALY":249.5454,"EPHEMERIS_TYPE":0,"CLASSIFICATION_TYPE":"U","NORAD_CAT_ID":62965,"ELEMENT_SET_NO":999,"REV_AT_EPOCH":6318,"BSTAR":0.0010284906,"MEAN_MOTION_DOT":0.00030243,"MEAN_MOTION_DDOT":0},{"OBJECT_NAME":"STARLINK-32888","OBJECT_ID":"2025-029U","EPOCH":"2026-03-21T23:09:05.839488","MEAN_MOTION":15.30158448,"ECCENTRICITY":0.00013627,"INCLINATION":53.156,"RA_OF_ASC_NODE":175.6863,"ARG_OF_PERICENTER":88.021,"MEAN_ANOMALY":272.0947,"EPHEMERIS_TYPE":0,"CLASSIFICATION_TYPE":"U","NORAD_CAT_ID":62966,"ELEMENT_SET_NO":999,"REV_AT_EPOCH":6319,"BSTAR":0.0011319807,"MEAN_MOTION_DOT":0.00033274,"MEAN_MOTION_DDOT":0},{"OBJECT_NAME":"STARLINK-32897","OBJECT_ID":"2025-029V","EPOCH":"2026-03-21T17:39:48.608064","MEAN_MOTION":15.30224316,"ECCENTRICITY":0.00012252,"INCLINATION":53.1584,"RA_OF_ASC_NODE":176.3757,"ARG_OF_PERICENTER":104.0148,"MEAN_ANOMALY":256.0989,"EPHEMERIS_TYPE":0,"CLASSIFICATION_TYPE":"U","NORAD_CAT_ID":62967,"ELEMENT_SET_NO":999,"REV_AT_EPOCH":6316,"BSTAR":0.0014306162,"MEAN_MOTION_DOT":0.00042285,"MEAN_MOTION_DDOT":0},{"OBJECT_NAME":"STARLINK-32863","OBJECT_ID":"2025-029W","EPOCH":"2026-03-21T22:55:25.401504","MEAN_MOTION":15.30159773,"ECCENTRICITY":0.00021535,"INCLINATION":53.1565,"RA_OF_ASC_NODE":175.6112,"ARG_OF_PERICENTER":90.0847,"MEAN_ANOMALY":270.0401,"EPHEMERIS_TYPE":0,"CLASSIFICATION_TYPE":"U","NORAD_CAT_ID":62968,"ELEMENT_SET_NO":999,"REV_AT_EPOCH":6233,"BSTAR":-0.00048415434,"MEAN_MOTION_DOT":-0.00014654,"MEAN_MOTION_DDOT":0},{"OBJECT_NAME":"STARLINK-32894","OBJECT_ID":"2025-029X","EPOCH":"2026-03-21T15:56:38.529312","MEAN_MOTION":15.3020871,"ECCENTRICITY":0.00012395,"INCLINATION":53.1601,"RA_OF_ASC_NODE":176.6417,"ARG_OF_PERICENTER":77.4557,"MEAN_ANOMALY":282.6582,"EPHEMERIS_TYPE":0,"CLASSIFICATION_TYPE":"U","NORAD_CAT_ID":62969,"ELEMENT_SET_NO":999,"REV_AT_EPOCH":6315,"BSTAR":0.001497821,"MEAN_MOTION_DOT":0.00044279,"MEAN_MOTION_DDOT":0},{"OBJECT_NAME":"STARLINK-32826","OBJECT_ID":"2025-029Y","EPOCH":"2026-03-21T15:47:31.518816","MEAN_MOTION":15.30232009,"ECCENTRICITY":0.00010014,"INCLINATION":53.1605,"RA_OF_ASC_NODE":176.6017,"ARG_OF_PERICENTER":83.4977,"MEAN_ANOMALY":276.6138,"EPHEMERIS_TYPE":0,"CLASSIFICATION_TYPE":"U","NORAD_CAT_ID":62970,"ELEMENT_SET_NO":999,"REV_AT_EPOCH":6315,"BSTAR":0.0014441181,"MEAN_MOTION_DOT":0.000427,"MEAN_MOTION_DDOT":0},{"OBJECT_NAME":"STARLINK-11543 [DTC]","OBJECT_ID":"2025-031A","EPOCH":"2026-03-21T15:02:33.487008","MEAN_MOTION":15.71182999,"ECCENTRICITY":0.00023381,"INCLINATION":43.0007,"RA_OF_ASC_NODE":289.1639,"ARG_OF_PERICENTER":228.9483,"MEAN_ANOMALY":131.1183,"EPHEMERIS_TYPE":0,"CLASSIFICATION_TYPE":"U","NORAD_CAT_ID":62981,"ELEMENT_SET_NO":999,"REV_AT_EPOCH":6462,"BSTAR":0.0030994888,"MEAN_MOTION_DOT":0.00424306,"MEAN_MOTION_DDOT":0},{"OBJECT_NAME":"STARLINK-11458 [DTC]","OBJECT_ID":"2025-031B","EPOCH":"2026-03-20T21:06:48.868128","MEAN_MOTION":15.7094511,"ECCENTRICITY":0.00025183,"INCLINATION":42.9986,"RA_OF_ASC_NODE":293.8903,"ARG_OF_PERICENTER":256.1579,"MEAN_ANOMALY":103.9009,"EPHEMERIS_TYPE":0,"CLASSIFICATION_TYPE":"U","NORAD_CAT_ID":62982,"ELEMENT_SET_NO":999,"REV_AT_EPOCH":6450,"BSTAR":0.0017671593,"MEAN_MOTION_DOT":0.00233836,"MEAN_MOTION_DDOT":0},{"OBJECT_NAME":"STARLINK-11417 [DTC]","OBJECT_ID":"2025-031C","EPOCH":"2026-03-21T20:53:42.075168","MEAN_MOTION":15.70838008,"ECCENTRICITY":0.0001283,"INCLINATION":42.9991,"RA_OF_ASC_NODE":288.4396,"ARG_OF_PERICENTER":296.26,"MEAN_ANOMALY":63.8136,"EPHEMERIS_TYPE":0,"CLASSIFICATION_TYPE":"U","NORAD_CAT_ID":62983,"ELEMENT_SET_NO":999,"REV_AT_EPOCH":6465,"BSTAR":0.0017300493,"MEAN_MOTION_DOT":0.00227709,"MEAN_MOTION_DDOT":0},{"OBJECT_NAME":"STARLINK-11544 [DTC]","OBJECT_ID":"2025-031D","EPOCH":"2026-03-21T15:17:51.177696","MEAN_MOTION":15.71152135,"ECCENTRICITY":0.00033151,"INCLINATION":42.999,"RA_OF_ASC_NODE":289.2469,"ARG_OF_PERICENTER":232.9052,"MEAN_ANOMALY":127.1513,"EPHEMERIS_TYPE":0,"CLASSIFICATION_TYPE":"U","NORAD_CAT_ID":62984,"ELEMENT_SET_NO":999,"REV_AT_EPOCH":6459,"BSTAR":0.0029142527,"MEAN_MOTION_DOT":0.00397098,"MEAN_MOTION_DDOT":0},{"OBJECT_NAME":"STARLINK-11582 [DTC]","OBJECT_ID":"2025-031E","EPOCH":"2026-03-21T20:15:28.462752","MEAN_MOTION":15.7125307,"ECCENTRICITY":0.00027722,"INCLINATION":42.999,"RA_OF_ASC_NODE":288.2247,"ARG_OF_PERICENTER":231.2728,"MEAN_ANOMALY":128.7893,"EPHEMERIS_TYPE":0,"CLASSIFICATION_TYPE":"U","NORAD_CAT_ID":62985,"ELEMENT_SET_NO":999,"REV_AT_EPOCH":6465,"BSTAR":0.0029182953,"MEAN_MOTION_DOT":0.00399445,"MEAN_MOTION_DDOT":0},{"OBJECT_NAME":"STARLINK-11571 [DTC]","OBJECT_ID":"2025-031F","EPOCH":"2026-03-21T21:01:09.743808","MEAN_MOTION":15.708519,"ECCENTRICITY":0.00027265,"INCLINATION":43.0024,"RA_OF_ASC_NODE":287.5845,"ARG_OF_PERICENTER":296.0245,"MEAN_ANOMALY":64.0341,"EPHEMERIS_TYPE":0,"CLASSIFICATION_TYPE":"U","NORAD_CAT_ID":62986,"ELEMENT_SET_NO":999,"REV_AT_EPOCH":6466,"BSTAR":0.0016026546,"MEAN_MOTION_DOT":0.00210606,"MEAN_MOTION_DDOT":0},{"OBJECT_NAME":"STARLINK-11539 [DTC]","OBJECT_ID":"2025-031G","EPOCH":"2026-03-21T14:01:35.339520","MEAN_MOTION":15.70896298,"ECCENTRICITY":0.0001369,"INCLINATION":42.9997,"RA_OF_ASC_NODE":289.7165,"ARG_OF_PERICENTER":267.989,"MEAN_ANOMALY":92.0821,"EPHEMERIS_TYPE":0,"CLASSIFICATION_TYPE":"U","NORAD_CAT_ID":62987,"ELEMENT_SET_NO":999,"REV_AT_EPOCH":6461,"BSTAR":0.00020805141,"MEAN_MOTION_DOT":0.00026395,"MEAN_MOTION_DDOT":0},{"OBJECT_NAME":"STARLINK-11542 [DTC]","OBJECT_ID":"2025-031H","EPOCH":"2026-03-21T22:48:00.860544","MEAN_MOTION":15.70812378,"ECCENTRICITY":0.00018043,"INCLINATION":42.9996,"RA_OF_ASC_NODE":287.288,"ARG_OF_PERICENTER":252.7962,"MEAN_ANOMALY":107.2708,"EPHEMERIS_TYPE":0,"CLASSIFICATION_TYPE":"U","NORAD_CAT_ID":62988,"ELEMENT_SET_NO":999,"REV_AT_EPOCH":6464,"BSTAR":0.00034126316,"MEAN_MOTION_DOT":0.0004352,"MEAN_MOTION_DDOT":0}]
